[
    {
        "Altitude(m)": 716955.0483059511,
        "Argument of Periapsis(deg)": 0.007973084830638947,
        "Eccentricity": 0.0,
        "Inclination(deg)": 45.0,
        "Latitude(deg)": -42.91278752822609,
        "Longitude(deg)": 121.84589070994215,
        "Mean Anomaly(deg)": -73.74494834676338,
        "RAAN(deg)": 289.99247364097926,
        "Satellite Name": "Constellation 1 1293",
        "Satellite Number": 1293,
        "Semi-Major Axis(m)": 7083131.272910544,
        "Time(s)": 133
    },
    {
        "Altitude(m)": 716948.2689286759,
        "Argument of Periapsis(deg)": 0.008033032836884352,
        "Eccentricity": 0.0,
        "Inclination(deg)": 45.0,
        "Latitude(deg)": -42.896425442423954,
        "Longitude(deg)": 121.92119292481945,
        "Mean Anomaly(deg)": -73.68424720651353,
        "RAAN(deg)": 289.99241705181373,
        "Satellite Name": "Constellation 1 1293",
        "Satellite Number": 1293,
        "Semi-Major Axis(m)": 7083131.272910544,
        "Time(s)": 134
    },
    {
        "Altitude(m)": 716941.4665812601,
        "Argument of Periapsis(deg)": 0.008092980843129758,
        "Eccentricity": 0.0,
        "Inclination(deg)": 45.0,
        "Latitude(deg)": -42.88000826334324,
        "Longitude(deg)": 121.996453190524,
        "Mean Anomaly(deg)": -73.62354606626369,
        "RAAN(deg)": 289.99236046264815,
        "Satellite Name": "Constellation 1 1293",
        "Satellite Number": 1293,
        "Semi-Major Axis(m)": 7083131.272910544,
        "Time(s)": 135
    },
    {
        "Altitude(m)": 716934.6412886798,
        "Argument of Periapsis(deg)": 0.008152928849375162,
        "Eccentricity": 0.0,
        "Inclination(deg)": 45.0,
        "Latitude(deg)": -42.863536050978254,
        "Longitude(deg)": 122.07167141269768,
        "Mean Anomaly(deg)": -73.5628449260137,
        "RAAN(deg)": 289.9923038734825,
        "Satellite Name": "Constellation 1 1293",
        "Satellite Number": 1293,
        "Semi-Major Axis(m)": 7083131.272910544,
        "Time(s)": 136
    },
    {
        "Altitude(m)": 716927.7930760084,
        "Argument of Periapsis(deg)": 0.008212876855620568,
        "Eccentricity": 0.0,
        "Inclination(deg)": 45.0,
        "Latitude(deg)": -42.84700886544267,
        "Longitude(deg)": 122.14684749754005,
        "Mean Anomaly(deg)": -73.50214378576382,
        "RAAN(deg)": 289.992247284317,
        "Satellite Name": "Constellation 1 1293",
        "Satellite Number": 1293,
        "Semi-Major Axis(m)": 7083131.272910544,
        "Time(s)": 137
    },
    {
        "Altitude(m)": 716920.9219683971,
        "Argument of Periapsis(deg)": 0.008272824861865974,
        "Eccentricity": 0.0,
        "Inclination(deg)": 45.0,
        "Latitude(deg)": -42.830426766968635,
        "Longitude(deg)": 122.22198135180925,
        "Mean Anomaly(deg)": -73.44144264551396,
        "RAAN(deg)": 289.9921906951514,
        "Satellite Name": "Constellation 1 1293",
        "Satellite Number": 1293,
        "Semi-Major Axis(m)": 7083131.272910544,
        "Time(s)": 138
    },
    {
        "Altitude(m)": 716914.0279910796,
        "Argument of Periapsis(deg)": 0.00833277286811138,
        "Eccentricity": 0.0,
        "Inclination(deg)": 45.0,
        "Latitude(deg)": -42.81378981590589,
        "Longitude(deg)": 122.29707288282141,
        "Mean Anomaly(deg)": -73.38074150526403,
        "RAAN(deg)": 289.9921341059859,
        "Satellite Name": "Constellation 1 1293",
        "Satellite Number": 1293,
        "Semi-Major Axis(m)": 7083131.272910544,
        "Time(s)": 139
    },
    {
        "Altitude(m)": 716907.111169379,
        "Argument of Periapsis(deg)": 0.008392720874356788,
        "Eccentricity": 0.0,
        "Inclination(deg)": 45.0,
        "Latitude(deg)": -42.79709807272093,
        "Longitude(deg)": 122.3721219984507,
        "Mean Anomaly(deg)": -73.32004036501407,
        "RAAN(deg)": 289.9920775168203,
        "Satellite Name": "Constellation 1 1293",
        "Satellite Number": 1293,
        "Semi-Major Axis(m)": 7083131.272910544,
        "Time(s)": 140
    },
    {
        "Altitude(m)": 716900.1715286945,
        "Argument of Periapsis(deg)": 0.008452668880602192,
        "Eccentricity": 0.0,
        "Inclination(deg)": 45.0,
        "Latitude(deg)": -42.780351597995924,
        "Longitude(deg)": 122.44712843903218,
        "Mean Anomaly(deg)": -73.25933922476423,
        "RAAN(deg)": 289.9920209276548,
        "Satellite Name": "Constellation 1 1293",
        "Satellite Number": 1293,
        "Semi-Major Axis(m)": 7083131.272910544,
        "Time(s)": 141
    },
    {
        "Altitude(m)": 716893.2090945059,
        "Argument of Periapsis(deg)": 0.008512616886847598,
        "Eccentricity": 0.0,
        "Inclination(deg)": 45.0,
        "Latitude(deg)": -42.763550452428284,
        "Longitude(deg)": 122.52209244974983,
        "Mean Anomaly(deg)": -73.19863808451433,
        "RAAN(deg)": 289.99196433848914,
        "Satellite Name": "Constellation 1 1293",
        "Satellite Number": 1293,
        "Semi-Major Axis(m)": 7083131.272910544,
        "Time(s)": 142
    },
    {
        "Altitude(m)": 716886.2238923841,
        "Argument of Periapsis(deg)": 0.008572564893093004,
        "Eccentricity": 0.0,
        "Inclination(deg)": 45.0,
        "Latitude(deg)": -42.746694696829266,
        "Longitude(deg)": 122.59701377205509,
        "Mean Anomaly(deg)": -73.13793694426448,
        "RAAN(deg)": 289.99190774932356,
        "Satellite Name": "Constellation 1 1293",
        "Satellite Number": 1293,
        "Semi-Major Axis(m)": 7083131.272910544,
        "Time(s)": 143
    },
    {
        "Altitude(m)": 716879.2159479783,
        "Argument of Periapsis(deg)": 0.008632512899338408,
        "Eccentricity": 0.0,
        "Inclination(deg)": 45.0,
        "Latitude(deg)": -42.72978439212313,
        "Longitude(deg)": 122.67189231605404,
        "Mean Anomaly(deg)": -73.07723580401452,
        "RAAN(deg)": 289.99185116015803,
        "Satellite Name": "Constellation 1 1293",
        "Satellite Number": 1293,
        "Semi-Major Axis(m)": 7083131.272910544,
        "Time(s)": 144
    },
    {
        "Altitude(m)": 716872.1852870232,
        "Argument of Periapsis(deg)": 0.008692460905583814,
        "Eccentricity": 0.0,
        "Inclination(deg)": 45.0,
        "Latitude(deg)": -42.71281959934663,
        "Longitude(deg)": 122.74672799241027,
        "Mean Anomaly(deg)": -73.01653466376469,
        "RAAN(deg)": 289.99179457099245,
        "Satellite Name": "Constellation 1 1293",
        "Satellite Number": 1293,
        "Semi-Major Axis(m)": 7083131.272910544,
        "Time(s)": 145
    },
    {
        "Altitude(m)": 716865.1319353232,
        "Argument of Periapsis(deg)": 0.00875240891182922,
        "Eccentricity": 0.0,
        "Inclination(deg)": 45.0,
        "Latitude(deg)": -42.69580037964771,
        "Longitude(deg)": 122.82152071234582,
        "Mean Anomaly(deg)": -72.95583352351473,
        "RAAN(deg)": 289.99173798182693,
        "Satellite Name": "Constellation 1 1293",
        "Satellite Number": 1293,
        "Semi-Major Axis(m)": 7083131.272910544,
        "Time(s)": 146
    },
    {
        "Altitude(m)": 716858.0559187896,
        "Argument of Periapsis(deg)": 0.008812356918074627,
        "Eccentricity": 0.0,
        "Inclination(deg)": 45.0,
        "Latitude(deg)": -42.67872679428499,
        "Longitude(deg)": 122.89627038763919,
        "Mean Anomaly(deg)": -72.89513238326491,
        "RAAN(deg)": 289.9916813926613,
        "Satellite Name": "Constellation 1 1293",
        "Satellite Number": 1293,
        "Semi-Major Axis(m)": 7083131.272910544,
        "Time(s)": 147
    },
    {
        "Altitude(m)": 716850.9572633894,
        "Argument of Periapsis(deg)": 0.008872304924320031,
        "Eccentricity": 0.0,
        "Inclination(deg)": 45.0,
        "Latitude(deg)": -42.661598904626324,
        "Longitude(deg)": 122.97097676253101,
        "Mean Anomaly(deg)": -72.83443124301498,
        "RAAN(deg)": 289.9916248034957,
        "Satellite Name": "Constellation 1 1293",
        "Satellite Number": 1293,
        "Semi-Major Axis(m)": 7083131.272910544,
        "Time(s)": 148
    },
    {
        "Altitude(m)": 716843.8359951914,
        "Argument of Periapsis(deg)": 0.008932252930565437,
        "Eccentricity": 0.0,
        "Inclination(deg)": 45.0,
        "Latitude(deg)": -42.64441677214885,
        "Longitude(deg)": 123.04564008610855,
        "Mean Anomaly(deg)": -72.77373010276501,
        "RAAN(deg)": 289.9915682143302,
        "Satellite Name": "Constellation 1 1293",
        "Satellite Number": 1293,
        "Semi-Major Axis(m)": 7083131.272910544,
        "Time(s)": 149
    },
    {
        "Altitude(m)": 716836.6921403345,
        "Argument of Periapsis(deg)": 0.008992200936810843,
        "Eccentricity": 0.0,
        "Inclination(deg)": 45.0,
        "Latitude(deg)": -42.62718045843708,
        "Longitude(deg)": 123.12026010372614,
        "Mean Anomaly(deg)": -72.71302896251518,
        "RAAN(deg)": 289.9915116251646,
        "Satellite Name": "Constellation 1 1293",
        "Satellite Number": 1293,
        "Semi-Major Axis(m)": 7083131.272910544,
        "Time(s)": 150
    },
    {
        "Altitude(m)": 716829.5257250444,
        "Argument of Periapsis(deg)": 0.009052148943056249,
        "Eccentricity": 0.0,
        "Inclination(deg)": 45.0,
        "Latitude(deg)": -42.60989002518257,
        "Longitude(deg)": 123.1948367293922,
        "Mean Anomaly(deg)": -72.6523278222653,
        "RAAN(deg)": 289.9914550359991,
        "Satellite Name": "Constellation 1 1293",
        "Satellite Number": 1293,
        "Semi-Major Axis(m)": 7083131.272910544,
        "Time(s)": 151
    }
]